GLOBALSTAR M075         
1 37192U 10054E   23275.36263529 -.00000098  00000+0  32031-4 0  9997
2 37192  51.9937 280.9484 0000466  54.5533  53.7836 12.62261836597228
GLOBALSTAR M073         
1 37193U 10054F   23275.53476258 -.00000070  00000+0  18803-3 0  9992
2 37193  52.0052 193.7655 0000681  66.1859 105.0115 12.62267859599076
GLOBALSTAR M083         
1 37739U 11033A   23275.90873397 -.00000074  00000+0  16514-3 0  9993
2 37739  51.9842 142.2091 0000568  68.8417 303.8726 12.62269687568144
GLOBALSTAR M088         
1 37740U 11033B   23275.83541022 -.00000111  00000+0 -42378-4 0  9995
2 37740  51.9746  48.4463 0000545  78.4569  80.2601 12.62265865563674
GLOBALSTAR M091         
1 37741U 11033C   23275.57916078 -.00000091  00000+0  72471-4 0  9997
2 37741  52.0024  11.6689 0000422  74.1182 298.9025 12.62266586564430
GLOBALSTAR M085         
1 37742U 11033D   23275.40732844 -.00000078  00000+0  14149-3 0  9999
2 37742  51.9880 323.7849 0000269  66.9711 305.6801 12.62263280564920
GLOBALSTAR M081         
1 37743U 11033E   23275.86476150 -.00000076  00000+0  15263-3 0  9991
2 37743  51.9972 324.7944 0000478  54.9533 117.1810 12.62264869565124
GLOBALSTAR M089         
1 37744U 11033F   23275.74578750 -.00000090  00000+0  78662-4 0  9997
2 37744  51.9919 279.5017 0000650  84.6483  86.1797 12.62267628565956
